*******************************************************************************
JPL/HORIZONS               2728 Yatskiv (1979 ST9)         2023-Sep-04 11:19:35
Rec #:    2728 (+COV) Soln.date: 2023-Aug-23_01:23:33   # obs: 4201 (1929-2023)
 
IAU76/J2000 helio. ecliptic osc. elements (au, days, deg., period=Julian yrs):
 
  EPOCH=  2457300.5 ! 2015-Oct-05.00 (TDB)         Residual RMS= .27993
   EC= .1668498211842265   QR= 2.046968422852408   TP= 2457974.2146560638
   OM= 201.362265805376    W=  96.84701928285692   IN= 2.604071050306291
   A= 2.456902098685181    MA= 187.5757712377601   ADIST= 2.866835774517955
   PER= 3.85115            N= .255930648           ANGMOM= .026585479
   DAN= 2.43698            DDN= 2.34192            L= 298.2162957
   B= 2.5854862            MOID= 1.03328001        TP= 2017-Aug-08.7146560638
 
Asteroid physical parameters (km, seconds, rotational period in hours):
   GM= n.a.                RAD= 7.3485             ROTPER= 25.069
   H= 12.73                G= .150                 B-V= n.a.
                           ALBEDO= .075            STYP= n.a.

ASTEROID comments: 
1: soln ref.= JPL#52, OCC=0
2: source=ORB
*******************************************************************************


*******************************************************************************
Ephemeris / API_USER Mon Sep  4 11:19:35 2023 Pasadena, USA      / Horizons
*******************************************************************************
Target body name: 2728 Yatskiv (1979 ST9)         {source: JPL#52}
Center body name: Solar System Barycenter (0)     {source: DE441}
Center-site name: BODY CENTER
*******************************************************************************
Start time      : A.D. 2023-Aug-12 00:00:00.0000 TDB
Stop  time      : A.D. 2023-Aug-13 00:00:00.0000 TDB
Step-size       : 2880 minutes
*******************************************************************************
Center geodetic : 0.0, 0.0, 0.0                   {E-lon(deg),Lat(deg),Alt(km)}
Center cylindric: 0.0, 0.0, 0.0                   {E-lon(deg),Dxy(km),Dz(km)}
Center radii    : (undefined)
Small perturbers: Yes                             {source: SB441-N16}
Output units    : KM-S
Calendar mode   : Mixed Julian/Gregorian
Output type     : GEOMETRIC cartesian states
Output format   : 2 (position and velocity)
Reference frame : Ecliptic of J2000.0
*******************************************************************************
Initial IAU76/J2000 heliocentric ecliptic osculating elements (au, days, deg.):
  EPOCH=  2457300.5 ! 2015-Oct-05.00 (TDB)         Residual RMS= .27993        
   EC= .1668498211842265   QR= 2.046968422852408   TP= 2457974.2146560638      
   OM= 201.362265805376    W=  96.84701928285692   IN= 2.604071050306291       
  Equivalent ICRF heliocentric cartesian coordinates (au, au/d):
   X=-1.588084747235800E+00  Y= 2.234387015635246E+00  Z= 8.301641411187317E-01
  VX=-7.624528211167289E-03 VY=-4.897612538658536E-03 VZ=-2.016575594678474E-03
Asteroid physical parameters (km, seconds, rotational period in hours):        
   GM= n.a.                RAD= 7.3485             ROTPER= 25.069              
   H= 12.73                G= .150                 B-V= n.a.                   
                           ALBEDO= .075            STYP= n.a.                  
*******************************************************************************
JDTDB
   X     Y     Z
   VX    VY    VZ
*******************************************************************************
$$SOE
2460168.500000000 = A.D. 2023-Aug-12 00:00:00.0000 TDB 
 X =-2.959747066172828E+08 Y = 3.060962996505510E+08 Z =-1.785272353658438E+07
 VX=-1.106383697670953E+01 VY=-1.184676805938416E+01 VZ= 3.199544467764914E-01
$$EOE
*******************************************************************************
 
TIME

  Barycentric Dynamical Time ("TDB" or T_eph) output was requested. This
continuous coordinate time is equivalent to the relativistic proper time
of a clock at rest in a reference frame co-moving with the solar system
barycenter but outside the system's gravity well. It is the independent
variable in the solar system relativistic equations of motion.

  TDB runs at a uniform rate of one SI second per second and is independent
of irregularities in Earth's rotation.
 
CALENDAR SYSTEM

  Mixed calendar mode was active such that calendar dates after AD 1582-Oct-15
(if any) are in the modern Gregorian system. Dates prior to 1582-Oct-5 (if any)
are in the Julian calendar system, which is automatically extended for dates
prior to its adoption on 45-Jan-1 BC.  The Julian calendar is useful for
matching historical dates. The Gregorian calendar more accurately corresponds
to the Earth's orbital motion and seasons. A "Gregorian-only" calendar mode is
available if such physical events are the primary interest.

REFERENCE FRAME AND COORDINATES

  Ecliptic at the standard reference epoch

    Reference epoch: J2000.0
    X-Y plane: adopted Earth orbital plane at the reference epoch
               Note: IAU76 obliquity of 84381.448 arcseconds wrt ICRF X-Y plane
    X-axis   : ICRF
    Z-axis   : perpendicular to the X-Y plane in the directional (+ or -) sense
               of Earth's north pole at the reference epoch.

  Symbol meaning:

    JDTDB    Julian Day Number, Barycentric Dynamical Time
      X      X-component of position vector (km)
      Y      Y-component of position vector (km)
      Z      Z-component of position vector (km)
      VX     X-component of velocity vector (km/sec)                           
      VY     Y-component of velocity vector (km/sec)                           
      VZ     Z-component of velocity vector (km/sec)                           

ABERRATIONS AND CORRECTIONS

 Geometric state vectors have NO corrections or aberrations applied.

Computations by ...

    Solar System Dynamics Group, Horizons On-Line Ephemeris System
    4800 Oak Grove Drive, Jet Propulsion Laboratory
    Pasadena, CA  91109   USA

    General site: https://ssd.jpl.nasa.gov/
    Mailing list: https://ssd.jpl.nasa.gov/email_list.html
    System news : https://ssd.jpl.nasa.gov/horizons/news.html
    User Guide  : https://ssd.jpl.nasa.gov/horizons/manual.html
    Connect     : browser        https://ssd.jpl.nasa.gov/horizons/app.html#/x
                  API            https://ssd-api.jpl.nasa.gov/doc/horizons.html
                  command-line   telnet ssd.jpl.nasa.gov 6775
                  e-mail/batch   https://ssd.jpl.nasa.gov/ftp/ssd/hrzn_batch.txt
                  scripts        https://ssd.jpl.nasa.gov/ftp/ssd/SCRIPTS
    Author      : Jon.D.Giorgini@jpl.nasa.gov
*******************************************************************************
